OBJECT_NAME,OBJECT_ID,EPOCH,MEAN_MOTION,ECCENTRICITY,INCLINATION,RA_OF_ASC_NODE,ARG_OF_PERICENTER,MEAN_ANOMALY,EPHEMERIS_TYPE,CLASSIFICATION_TYPE,NORAD_CAT_ID,ELEMENT_SET_NO,REV_AT_EPOCH,BSTAR,MEAN_MOTION_DOT,MEAN_MOTION_DDOT
R5-S4,2024-125D,2026-05-10T03:09:25.380000,15.42020531,.0016782,97.2444,341.6086,15.0447,345.1296,0,U,60206,999,10326,.23082E-3,.981E-4,0
R5-S2,2024-125E,2026-05-10T01:50:33.690048,15.43751387,.0016143,97.2418,342.1808,14.9185,345.2536,0,U,60207,999,10330,.25665E-3,.1157E-3,0
MESAT1,2024-125G,2026-05-10T03:49:45.456096,15.59384042,.0009761,97.2354,346.8812,7.4341,352.7059,0,U,60209,999,10363,.45037E-3,.35604E-3,0
TIANHUI 5C,2024-126A,2026-05-09T10:08:10.320288,14.87569645,.00015631,97.8209,137.5254,89.0917,271.0478,0,U,60211,999,10012,.39683576E-4,.306E-5,0
TIANHUI 5D,2024-126B,2026-05-09T10:08:10.406688,14.87569528,.00021078,97.8210,137.5328,94.5467,265.5991,0,U,60212,999,10013,.38468593E-4,.295E-5,0
TURKSAT 6A,2024-127A,2026-05-10T03:59:38.838336,1.00272981,.0000543,0.0380,165.2945,264.7082,259.8836,0,U,60233,999,663,0,.155E-5,0
GRBBETA,2024-128C,2026-05-09T23:42:24.833952,15.06325443,.0045645,61.9911,350.2568,126.7287,233.8011,0,U,60237,999,10051,.18909E-3,.2637E-4,0
ISTSAT-1,2024-128D,2026-05-10T03:25:45.219072,15.11112503,.0043398,61.9894,340.5993,123.8175,236.7063,0,U,60238,999,10071,.28927E-3,.4752E-4,0
OOV-CUBE (TUBSAT-30),2024-128F,2026-05-10T04:36:47.553120,15.02579723,.0049153,61.9963,358.0406,125.4287,235.1409,0,U,60240,999,10040,.12238E-3,.1461E-4,0
CURIUM ONE,2024-128H,2026-05-10T03:34:01.710624,15.11898998,.004533,61.9800,340.4367,123.0174,237.5289,0,U,60242,999,10070,.34405E-3,.5841E-4,0
ROBUSTA-3A (MEDITERRANEE),2024-128J,2026-05-10T03:48:31.401792,15.11079542,.0046442,61.9877,342.6644,120.5090,240.0602,0,U,60243,999,10067,.32497E-3,.5381E-4,0
CATSAT,2024-125J,2026-05-10T03:26:32.504064,15.54668011,.0021718,97.2133,342.2676,325.1923,34.7909,0,U,60246,999,10147,.53683E-3,.35928E-3,0
GAOFEN-11 05,2024-130A,2026-05-10T05:14:47.749344,15.23848823,.000514,97.3997,209.0517,199.3274,160.7769,0,U,60249,999,7968,.17463E-3,.414E-4,0
STARLINK-32138,2024-131A,2026-05-10T04:28:46.755264,15.31685925,.0001428,53.1604,126.8139,89.0078,271.1087,0,U,60255,999,10143,.19656E-4,.245E-5,0
STARLINK-32212,2024-131B,2026-05-10T04:59:58.106688,15.30197144,.000112,53.1585,126.9602,76.4830,283.6295,0,U,60256,999,10113,.15296E-4,.94E-6,0
STARLINK-32166,2024-131C,2026-05-10T03:35:01.794048,15.30187089,.0001031,53.1594,127.2929,82.0129,278.0988,0,U,60257,999,10112,.36842E-4,.732E-5,0
STARLINK-32200,2024-131D,2026-05-10T04:56:55.660128,15.30198067,.00011,53.1592,126.9364,88.1814,271.9313,0,U,60258,999,10113,-.11129E-4,-.689E-5,0
STARLINK-32207,2024-131E,2026-05-10T04:53:53.515104,15.30202004,.0001258,53.1592,126.9334,77.0698,283.0443,0,U,60259,999,10113,-.49033E-4,-.1811E-4,0
STARLINK-32125,2024-131F,2026-05-10T05:15:01.539648,15.30188178,.0001252,53.1590,126.3081,65.0662,295.0468,0,U,60260,999,10114,-.89073E-5,-.623E-5,0
STARLINK-32160,2024-131G,2026-05-10T05:01:29.022816,15.30192962,.0001155,53.1587,126.9512,85.3213,274.7920,0,U,60261,999,10118,.40986E-4,.855E-5,0
STARLINK-32163,2024-131H,2026-05-10T03:55:08.661216,15.31715042,.0001031,53.1591,126.6665,79.6270,280.4848,0,U,60262,999,10113,.66929E-4,.1713E-4,0
STARLINK-32148,2024-131J,2026-05-10T04:28:03.283104,15.30189368,.0001292,53.1608,126.8065,84.4326,275.6822,0,U,60263,999,10118,.59814E-6,-.341E-5,0
STARLINK-32121,2024-131K,2026-05-10T04:32:37.324032,15.30151406,.0001277,53.1599,126.8317,89.7639,270.3508,0,U,60264,999,10118,.24655E-3,.6939E-4,0
STARLINK-32120,2024-131L,2026-05-10T04:50:29.788224,15.29186353,.0001344,53.1606,126.9067,70.0801,290.0345,0,U,60265,999,10118,-.22159E-4,-.991E-5,0
STARLINK-32205,2024-131M,2026-05-10T04:50:51.001152,15.30195325,.0001178,53.1592,126.9183,75.3224,284.7907,0,U,60266,999,10113,.57894E-5,-.188E-5,0
STARLINK-32158,2024-131N,2026-05-10T04:03:44.541792,15.30182792,.0001289,53.1590,126.7014,91.5266,268.5882,0,U,60267,999,10103,.29894E-4,.526E-5,0
STARLINK-32167,2024-131P,2026-05-10T05:16:31.505376,15.30195003,.0001174,53.1592,126.3225,86.6105,273.5030,0,U,60268,999,10113,-.58827E-5,-.533E-5,0
STARLINK-32144,2024-131Q,2026-05-10T04:08:37.106016,15.31698055,.0001323,53.1605,126.7226,85.8796,274.2356,0,U,60269,999,10118,-.12954E-4,-.767E-5,0
STARLINK-32211,2024-131R,2026-05-10T05:04:32.121696,15.30199559,.0000282,53.1602,126.9801,51.0035,309.0990,0,U,60270,999,10113,-.24168E-5,-.43E-5,0
STARLINK-32164,2024-131S,2026-05-10T05:10:36.310656,15.30181994,.0001184,53.1599,126.9943,78.4519,281.6614,0,U,60271,999,10103,-.61806E-4,-.2188E-4,0
STARLINK-32128,2024-131T,2026-05-10T04:00:01.998720,15.30204090,.0001354,53.1582,126.6843,89.9215,273.4167,0,U,60272,999,586,-.72131E-3,-.21664E-3,0
STARLINK-32206,2024-131U,2026-05-10T04:55:24.797568,15.30194846,.0001183,53.1593,126.9377,75.0386,285.0746,0,U,60273,999,10113,.39348E-5,-.243E-5,0
STARLINK-32155,2024-131V,2026-05-10T04:46:15.246048,15.30219734,.0001301,53.1597,126.8868,81.7872,278.3276,0,U,60274,999,10103,.12859E-3,.3453E-4,0
STARLINK-32152,2024-131W,2026-05-10T03:54:37.789632,15.30191336,.0001112,53.1589,126.6618,94.1549,265.9578,0,U,60275,999,10103,-.39581E-4,-.1531E-4,0
STARLINK-32154,2024-131X,2026-05-10T05:19:33.726432,15.30192919,.0001056,53.1589,126.3168,91.0733,269.0388,0,U,60276,999,10114,-.50676E-6,-.374E-5,0
STARLINK-32135,2024-131Y,2026-05-10T04:09:49.381344,15.30188554,.0001339,53.1600,126.7261,86.1205,273.9949,0,U,60277,999,10113,.6364E-5,-.171E-5,0
STARLINK-32156,2024-132A,2026-05-10T03:56:10.603104,15.30190319,.0001126,53.1591,126.7981,90.0334,270.0796,0,U,60278,999,10219,-.18051E-4,-.893E-5,0
STARLINK-32010,2024-132B,2026-05-10T04:41:27.566016,15.31106969,.0001272,53.1605,126.9995,56.9718,303.1405,0,U,60279,999,10097,.31482E-2,.96793E-3,0
STARLINK-32118,2024-132C,2026-05-10T03:47:03.714432,15.30198456,.0001245,53.1596,126.7592,82.4554,277.6588,0,U,60280,999,10097,.14925E-4,.83E-6,0
STARLINK-32038,2024-132D,2026-05-10T03:50:06.014112,15.30192725,.0001294,53.1585,126.7712,85.1455,274.9694,0,U,60281,999,10097,.22651E-4,.312E-5,0
STARLINK-32113,2024-132E,2026-05-10T03:51:36.982080,15.30188865,.0001029,53.1590,126.7769,88.6850,271.4268,0,U,60282,999,10097,.34772E-5,-.256E-5,0
STARLINK-32037,2024-132F,2026-05-10T04:20:30.503904,15.30185313,.0001197,53.1608,126.9033,92.4372,267.6765,0,U,60283,999,10097,-.25722E-4,-.112E-4,0
STARLINK-32123,2024-132G,2026-05-10T04:25:46.320096,15.30195160,.0001209,53.1596,114.1584,84.9871,275.1268,0,U,60284,999,10115,-.63779E-5,-.548E-5,0
STARLINK-32122,2024-132H,2026-05-10T04:11:22.291584,15.30191736,.0001257,53.1594,126.8665,83.3627,276.7517,0,U,60285,999,10097,-.22988E-4,-.104E-4,0
STARLINK-31656,2024-132J,2026-05-10T05:11:59.640000,15.30192550,.0001091,53.1593,126.4232,85.1130,274.9995,0,U,60286,999,10098,-.7902E-4,-.2698E-4,0
STARLINK-32114,2024-132K,2026-05-10T04:49:21.415584,15.30196691,.0001164,53.1601,127.0243,78.9374,281.1757,0,U,60287,999,10097,-.12953E-4,-.743E-5,0
STARLINK-31997,2024-132L,2026-05-10T04:58:18.439968,15.30188410,.0001136,53.1593,126.3539,80.1073,280.0056,0,U,60288,999,10098,.53663E-4,.123E-4,0
STARLINK-32000,2024-132M,2026-05-10T04:14:52.590048,15.31699798,.0001018,53.1608,126.8802,81.5978,278.5139,0,U,60289,999,10097,-.26374E-4,-.1183E-4,0
STARLINK-32141,2024-132N,2026-05-10T04:03:03.303072,15.29527314,.000377,53.1587,126.8255,66.7749,293.3648,0,U,60290,999,10097,-.30955E-2,-.89112E-3,0
STARLINK-32142,2024-132P,2026-05-10T05:05:54.561120,15.30197490,.0001128,53.1594,126.3892,81.4316,278.6813,0,U,60291,999,10098,.81447E-5,-.118E-5,0
STARLINK-32149,2024-132Q,2026-05-10T04:29:37.153248,15.30201230,.0001313,53.1617,126.9437,42.4233,317.6869,0,U,60292,999,10097,-.13941E-3,-.4486E-4,0
STARLINK-32159,2024-132R,2026-05-10T05:02:52.494720,15.30189364,.0001062,53.1593,126.3745,86.7709,273.3413,0,U,60293,999,10098,-.26258E-4,-.1136E-4,0
STARLINK-32150,2024-132S,2026-05-10T04:34:09.752160,15.30185715,.0001773,53.1599,126.9624,81.7675,278.3526,0,U,60294,999,10097,.28053E-4,.471E-5,0
STARLINK-32126,2024-132T,2026-05-10T04:35:31.271424,15.31699851,.0001154,53.1596,126.9657,85.7783,274.3350,0,U,60295,999,10097,.6697E-5,-.157E-5,0
STARLINK-32143,2024-132U,2026-05-10T04:22:05.193120,15.31687292,.0001472,53.1605,126.9113,89.6142,270.5028,0,U,60296,999,10097,-.76584E-4,-.274E-4,0
STARLINK-32034,2024-132V,2026-05-10T04:01:26.027040,15.31700728,.0001219,53.1598,126.8193,94.2935,265.8206,0,U,60297,999,10097,-.22671E-4,-.1069E-4,0
STARLINK-32124,2024-132W,2026-05-10T04:15:21.991104,15.31697245,.0001088,53.1611,126.8830,92.5664,267.5462,0,U,60298,999,10097,-.15993E-4,-.861E-5,0
STARLINK-32151,2024-132X,2026-05-10T04:40:42.072096,15.30184990,.0001119,53.1593,98.2979,73.6982,286.4142,0,U,60299,999,10137,-.31118E-4,-.128E-4,0
STARLINK-32134,2024-132Y,2026-05-10T04:05:17.517696,15.30193151,.0001682,53.1588,126.8356,89.6274,270.4920,0,U,60300,999,10097,-.13167E-3,-.4256E-4,0
STARLINK-11147 [DTC],2024-133A,2026-05-10T05:02:36.453696,15.69713322,.0001042,53.1595,203.1660,74.2944,285.8189,0,U,60301,999,10339,.85952E-5,.453E-5,0
STARLINK-11128 [DTC],2024-133B,2026-05-09T13:38:43.456992,15.69714891,.00009964,53.1594,206.2733,83.0464,277.0667,0,U,60302,999,10329,-.39054666E-4,-.5318E-4,0
STARLINK-11227 [DTC],2024-133C,2026-05-09T11:59:59.096256,15.69693623,.00010149,53.1600,206.5531,82.5025,277.6108,0,U,60303,999,10336,-.1543949E-4,-.2457E-4,0
STARLINK-11224 [DTC],2024-133D,2026-05-09T11:52:55.484832,15.69693730,.00011299,53.1596,206.5208,65.9150,294.1986,0,U,60304,999,10336,-.20407391E-4,-.3058E-4,0
STARLINK-11115 [DTC],2024-133E,2026-05-09T22:27:37.725984,15.69699438,.0001129,53.1595,204.2921,78.6204,281.4940,0,U,60305,999,10335,.19893E-5,-.348E-5,0
STARLINK-11109 [DTC],2024-133F,2026-05-09T22:20:34.236384,15.69703202,.000096,53.1587,204.2580,84.3326,275.7801,0,U,60306,999,10335,.53741E-6,-.523E-5,0
